[
    {
        "Altitude(m)": 604221.1918320941,
        "Argument of Periapsis(deg)": 0.0,
        "Eccentricity": 0.0,
        "Inclination(deg)": 60.0,
        "Latitude(deg)": 14.117174598526963,
        "Longitude(deg)": -81.66585197523537,
        "Mean Anomaly(deg)": 16.363599999999998,
        "RAAN(deg)": 10.0,
        "Satellite Name": "Test1 45",
        "Satellite Number": 45,
        "Semi-Major Axis(m)": 6980739.136638005,
        "Time(s)": 0
    },
    {
        "Altitude(m)": 604235.3323342351,
        "Argument of Periapsis(deg)": 0.00010418945913296404,
        "Eccentricity": 0.0,
        "Inclination(deg)": 60.0,
        "Latitude(deg)": 14.651571484116484,
        "Longitude(deg)": -81.37740535193417,
        "Mean Anomaly(deg)": 16.98370614546183,
        "RAAN(deg)": 9.999579950860259,
        "Satellite Name": "Test1 45",
        "Satellite Number": 45,
        "Semi-Major Axis(m)": 6980739.136638005,
        "Time(s)": 10
    }
]